start=new Date('2022-03-11T00:00:00.000Z').valueOf();
sats=[{"PERIAPSIS":"546.145","NORAD_CAT_ID":"45658","APOAPSIS":"548.299","EPHEMERIS_TYPE":"0","REF_FRAME":"TEME","TLE_LINE1":"1 45658U 20035B   22069.51639203  .00003565  00000-0  25815-3 0  9999","RCS_SIZE":"LARGE","PERIOD":"95.592","EPOCH":"2022-03-10T12:23:36.271392","MEAN_MOTION_DDOT":"0.0000000000000","FILE":"3353787","MEAN_MOTION":"15.06397192","COUNTRY_CODE":"US","MEAN_ANOMALY":"290.2706","SEMIMAJOR_AXIS":"6925.357","DECAY_DATE":null,"TLE_LINE2":"2 45658  53.0540 141.5878 0001555  69.8450 290.2706 15.06397192 98241","BSTAR":"0.00025815000000","REV_AT_EPOCH":"9824","ELEMENT_SET_NO":"999","TIME_SYSTEM":"UTC","INCLINATION":"53.0540","OBJECT_TYPE":"PAYLOAD","CENTER_NAME":"EARTH","MEAN_MOTION_DOT":"0.00003565","SITE":"AFETR","GP_ID":"198409336","OBJECT_NAME":"STARLINK-1441","ARG_OF_PERICENTER":"69.8450","ECCENTRICITY":"0.00015550","OBJECT_ID":"2020-035B","CLASSIFICATION_TYPE":"U","RA_OF_ASC_NODE":"141.5878","LAUNCH_DATE":"2020-06-04","MEAN_ELEMENT_THEORY":"SGP4"},{"BSTAR":"0.00015173000000","REV_AT_EPOCH":"9824","ELEMENT_SET_NO":"999","TIME_SYSTEM":"UTC","SEMIMAJOR_AXIS":"6925.382","DECAY_DATE":null,"TLE_LINE2":"2 45659  53.0567 141.5824 0001463  61.3930 298.7206 15.06389110 98249","MEAN_MOTION_DOT":"0.00001979","INCLINATION":"53.0567","OBJECT_TYPE":"PAYLOAD","CENTER_NAME":"EARTH","OBJECT_NAME":"STARLINK-1442","ARG_OF_PERICENTER":"61.3930","ECCENTRICITY":"0.00014630","SITE":"AFETR","GP_ID":"198409335","RA_OF_ASC_NODE":"141.5824","LAUNCH_DATE":"2020-06-04","MEAN_ELEMENT_THEORY":"SGP4","OBJECT_ID":"2020-035C","CLASSIFICATION_TYPE":"U","PERIAPSIS":"546.234","REF_FRAME":"TEME","NORAD_CAT_ID":"45659","APOAPSIS":"548.260","EPHEMERIS_TYPE":"0","COUNTRY_CODE":"US","MEAN_ANOMALY":"298.7206","TLE_LINE1":"1 45659U 20035C   22069.51915391  .00001979  00000-0  15173-3 0  9998","MEAN_MOTION_DDOT":"0.0000000000000","RCS_SIZE":"LARGE","PERIOD":"95.593","EPOCH":"2022-03-10T12:27:34.897824","FILE":"3353787","MEAN_MOTION":"15.06389110"},{"COUNTRY_CODE":"US","MEAN_ANOMALY":"301.3914","RCS_SIZE":"LARGE","PERIOD":"95.592","MEAN_MOTION_DDOT":"0.0000000000000","EPOCH":"2022-03-10T15:50:38.738976","TLE_LINE1":"1 45660U 20035D   22069.66017059  .00009248  00000-0  63898-3 0  9994","FILE":"3354091","MEAN_MOTION":"15.06396613","PERIAPSIS":"546.106","REF_FRAME":"TEME","APOAPSIS":"548.342","NORAD_CAT_ID":"45660","EPHEMERIS_TYPE":"0","OBJECT_NAME":"STARLINK-1443","ECCENTRICITY":"0.00016140","ARG_OF_PERICENTER":"58.7232","GP_ID":"198435220","SITE":"AFETR","LAUNCH_DATE":"2020-06-04","RA_OF_ASC_NODE":"140.9524","MEAN_ELEMENT_THEORY":"SGP4","OBJECT_ID":"2020-035D","CLASSIFICATION_TYPE":"U","REV_AT_EPOCH":"9867","BSTAR":"0.00063898000000","TIME_SYSTEM":"UTC","ELEMENT_SET_NO":"999","DECAY_DATE":null,"SEMIMAJOR_AXIS":"6925.359","TLE_LINE2":"2 45660  53.0525 140.9524 0001614  58.7232 301.3914 15.06396613 98678","MEAN_MOTION_DOT":"0.00009248","INCLINATION":"53.0525","CENTER_NAME":"EARTH","OBJECT_TYPE":"PAYLOAD"},{"GP_ID":"198435470","SITE":"AFETR","ECCENTRICITY":"0.00015350","ARG_OF_PERICENTER":"65.1881","OBJECT_NAME":"STARLINK-1444","OBJECT_ID":"2020-035E","CLASSIFICATION_TYPE":"U","MEAN_ELEMENT_THEORY":"SGP4","LAUNCH_DATE":"2020-06-04","RA_OF_ASC_NODE":"141.1560","TLE_LINE2":"2 45661  53.0537 141.1560 0001535  65.1881 294.9267 15.06413288 98664","DECAY_DATE":null,"SEMIMAJOR_AXIS":"6925.308","TIME_SYSTEM":"UTC","ELEMENT_SET_NO":"999","REV_AT_EPOCH":"9866","BSTAR":"0.00067018000000","CENTER_NAME":"EARTH","OBJECT_TYPE":"PAYLOAD","INCLINATION":"53.0537","MEAN_MOTION_DOT":"0.00009718","FILE":"3354091","MEAN_MOTION":"15.06413288","RCS_SIZE":"LARGE","PERIOD":"95.591","MEAN_MOTION_DDOT":"0.0000000000000","EPOCH":"2022-03-10T14:41:39.060096","TLE_LINE1":"1 45661U 20035E   22069.61225764  .00009718  00000-0  67018-3 0  9994","MEAN_ANOMALY":"294.9267","COUNTRY_CODE":"US","PERIAPSIS":"546.110","EPHEMERIS_TYPE":"0","APOAPSIS":"548.236","NORAD_CAT_ID":"45661","REF_FRAME":"TEME"},{"SEMIMAJOR_AXIS":"6925.394","DECAY_DATE":null,"TLE_LINE2":"2 45662  53.0519 140.7898 0001510  66.0303 294.0844 15.06385291 98671","BSTAR":"0.00006053700000","REV_AT_EPOCH":"9867","ELEMENT_SET_NO":"999","TIME_SYSTEM":"UTC","INCLINATION":"53.0519","OBJECT_TYPE":"PAYLOAD","CENTER_NAME":"EARTH","MEAN_MOTION_DOT":"0.00000620","SITE":"AFETR","GP_ID":"198436218","OBJECT_NAME":"STARLINK-1445","ARG_OF_PERICENTER":"66.0303","ECCENTRICITY":"0.00015100","OBJECT_ID":"2020-035F","CLASSIFICATION_TYPE":"U","RA_OF_ASC_NODE":"140.7898","LAUNCH_DATE":"2020-06-04","MEAN_ELEMENT_THEORY":"SGP4","PERIAPSIS":"546.213","NORAD_CAT_ID":"45662","APOAPSIS":"548.304","EPHEMERIS_TYPE":"0","REF_FRAME":"TEME","TLE_LINE1":"1 45662U 20035F   22069.69334251  .00000620  00000-0  60537-4 0  9998","PERIOD":"95.593","RCS_SIZE":"LARGE","EPOCH":"2022-03-10T16:38:24.792864","MEAN_MOTION_DDOT":"0.0000000000000","FILE":"3354091","MEAN_MOTION":"15.06385291","COUNTRY_CODE":"US","MEAN_ANOMALY":"294.0844"},{"ECCENTRICITY":"0.00016850","ARG_OF_PERICENTER":"58.8663","OBJECT_NAME":"STARLINK-1446","GP_ID":"198436964","SITE":"AFETR","MEAN_ELEMENT_THEORY":"SGP4","LAUNCH_DATE":"2020-06-04","RA_OF_ASC_NODE":"139.8820","OBJECT_ID":"2020-035G","CLASSIFICATION_TYPE":"U","TIME_SYSTEM":"UTC","ELEMENT_SET_NO":"999","REV_AT_EPOCH":"9870","BSTAR":"0.00038072000000","TLE_LINE2":"2 45663  53.0528 139.8820 0001685  58.8663 301.2491 15.06399929 98703","DECAY_DATE":null,"SEMIMAJOR_AXIS":"6925.349","MEAN_MOTION_DOT":"0.00005394","CENTER_NAME":"EARTH","OBJECT_TYPE":"PAYLOAD","INCLINATION":"53.0528","MEAN_ANOMALY":"301.2491","COUNTRY_CODE":"US","FILE":"3354091","MEAN_MOTION":"15.06399929","RCS_SIZE":"LARGE","PERIOD":"95.592","MEAN_MOTION_DDOT":"0.0000000000000","EPOCH":"2022-03-10T21:30:20.720160","TLE_LINE1":"1 45663U 20035G   22069.89607315  .00005394  00000-0  38072-3 0  9996","PERIAPSIS":"546.047","REF_FRAME":"TEME","EPHEMERIS_TYPE":"0","APOAPSIS":"548.381","NORAD_CAT_ID":"45663"},{"APOAPSIS":"548.312","NORAD_CAT_ID":"45665","EPHEMERIS_TYPE":"0","REF_FRAME":"TEME","PERIAPSIS":"546.136","PERIOD":"95.592","RCS_SIZE":"LARGE","MEAN_MOTION_DDOT":"0.0000000000000","EPOCH":"2022-03-10T11:09:19.116576","TLE_LINE1":"1 45665U 20035J   22069.46480459  .00004267  00000-0  30518-3 0  9994","MEAN_MOTION":"15.06396696","FILE":"3353482","COUNTRY_CODE":"US","MEAN_ANOMALY":"291.3952","INCLINATION":"53.0536","CENTER_NAME":"EARTH","OBJECT_TYPE":"PAYLOAD","MEAN_MOTION_DOT":"0.00004267","DECAY_DATE":null,"SEMIMAJOR_AXIS":"6925.359","TLE_LINE2":"2 45665  53.0536 141.8119 0001571  68.7204 291.3952 15.06396696 98634","REV_AT_EPOCH":"9863","BSTAR":"0.00030518000000","TIME_SYSTEM":"UTC","ELEMENT_SET_NO":"999","CLASSIFICATION_TYPE":"U","OBJECT_ID":"2020-035J","LAUNCH_DATE":"2020-06-04","RA_OF_ASC_NODE":"141.8119","MEAN_ELEMENT_THEORY":"SGP4","GP_ID":"198397447","SITE":"AFETR","OBJECT_NAME":"STARLINK-1448","ECCENTRICITY":"0.00015710","ARG_OF_PERICENTER":"68.7204"},{"CENTER_NAME":"EARTH","OBJECT_TYPE":"PAYLOAD","INCLINATION":"53.0545","MEAN_MOTION_DOT":"0.00001061","TLE_LINE2":"2 45666  53.0545 140.9069 0001503  55.0033 305.1096 15.06392867 98665","DECAY_DATE":null,"SEMIMAJOR_AXIS":"6925.370","TIME_SYSTEM":"UTC","ELEMENT_SET_NO":"999","REV_AT_EPOCH":"9866","BSTAR":"0.00009014900000","OBJECT_ID":"2020-035K","CLASSIFICATION_TYPE":"U","MEAN_ELEMENT_THEORY":"SGP4","LAUNCH_DATE":"2020-06-04","RA_OF_ASC_NODE":"140.9069","GP_ID":"198435970","SITE":"AFETR","ECCENTRICITY":"0.00015030","ARG_OF_PERICENTER":"55.0033","OBJECT_NAME":"STARLINK-1449","EPHEMERIS_TYPE":"0","APOAPSIS":"548.276","NORAD_CAT_ID":"45666","REF_FRAME":"TEME","PERIAPSIS":"546.195","FILE":"3354091","MEAN_MOTION":"15.06392867","PERIOD":"95.593","RCS_SIZE":"LARGE","EPOCH":"2022-03-10T16:05:11.571648","MEAN_MOTION_DDOT":"0.0000000000000","TLE_LINE1":"1 45666U 20035K   22069.67027282  .00001061  00000-0  90149-4 0  9995","MEAN_ANOMALY":"305.1096","COUNTRY_CODE":"US"},{"GP_ID":"198409894","SITE":"AFETR","OBJECT_NAME":"STARLINK-1450","ECCENTRICITY":"0.00013480","ARG_OF_PERICENTER":"71.2101","CLASSIFICATION_TYPE":"U","OBJECT_ID":"2020-035L","LAUNCH_DATE":"2020-06-04","RA_OF_ASC_NODE":"141.7990","MEAN_ELEMENT_THEORY":"SGP4","DECAY_DATE":null,"SEMIMAJOR_AXIS":"6925.346","TLE_LINE2":"2 45667  53.0537 141.7990 0001348  71.2101 288.9034 15.06400918 98287","REV_AT_EPOCH":"9828","BSTAR":"0.00035455000000","TIME_SYSTEM":"UTC","ELEMENT_SET_NO":"999","INCLINATION":"53.0537","CENTER_NAME":"EARTH","OBJECT_TYPE":"PAYLOAD","MEAN_MOTION_DOT":"0.00005004","MEAN_MOTION_DDOT":"0.0000000000000","RCS_SIZE":"LARGE","PERIOD":"95.592","EPOCH":"2022-03-10T11:14:37.199904","TLE_LINE1":"1 45667U 20035L   22069.46848611  .00005004  00000-0  35455-3 0  9999","MEAN_MOTION":"15.06400918","FILE":"3353791","COUNTRY_CODE":"US","MEAN_ANOMALY":"288.9034","PERIAPSIS":"546.277","APOAPSIS":"548.144","NORAD_CAT_ID":"45667","EPHEMERIS_TYPE":"0","REF_FRAME":"TEME"},{"DECAY_DATE":null,"SEMIMAJOR_AXIS":"6925.363","TLE_LINE2":"2 45668  53.0574 139.8438 0001545  58.6802 301.4338 15.06395376 98717","REV_AT_EPOCH":"9871","BSTAR":"0.00020797000000","TIME_SYSTEM":"UTC","ELEMENT_SET_NO":"999","INCLINATION":"53.0574","CENTER_NAME":"EARTH","OBJECT_TYPE":"PAYLOAD","MEAN_MOTION_DOT":"0.00002817","GP_ID":"198436465","SITE":"AFETR","OBJECT_NAME":"STARLINK-1451","ECCENTRICITY":"0.00015450","ARG_OF_PERICENTER":"58.6802","OBJECT_ID":"2020-035M","CLASSIFICATION_TYPE":"U","LAUNCH_DATE":"2020-06-04","RA_OF_ASC_NODE":"139.8438","MEAN_ELEMENT_THEORY":"SGP4","PERIAPSIS":"546.158","APOAPSIS":"548.298","NORAD_CAT_ID":"45668","EPHEMERIS_TYPE":"0","REF_FRAME":"TEME","MEAN_MOTION_DDOT":"0.0000000000000","RCS_SIZE":"LARGE","PERIOD":"95.592","EPOCH":"2022-03-10T21:39:35.412480","TLE_LINE1":"1 45668U 20035M   22069.90249320  .00002817  00000-0  20797-3 0  9993","FILE":"3354091","MEAN_MOTION":"15.06395376","COUNTRY_CODE":"US","MEAN_ANOMALY":"301.4338"}];
